{
  "type": "FeatureCollection",
  "features": [
    {
      "type": "Feature",
      "properties": {
        "norad_id": 44873,
        "name": "CSG-1",
        "group": "resource",
        "lat": -9.925563720055447,
        "lon": 171.2955023097526,
        "alt_km": 626.7594832461182,
        "timestamp": "2025-12-14T14:39:29.034172+00:00",
        "meta_object_name": "CSG-1",
        "meta_object_id": "2019-092A",
        "meta_epoch": "2025-12-14T00:07:15.633984",
        "meta_mean_motion": 14.82166612,
        "meta_eccentricity": 0.00014406,
        "meta_inclination": 97.881,
        "meta_ra_of_asc_node": 169.3102,
        "meta_arg_of_pericenter": 84.813,
        "meta_mean_anomaly": 275.3248,
        "meta_ephemeris_type": 0,
        "meta_classification_type": "U",
        "meta_norad_cat_id": 44873,
        "meta_element_set_no": 999,
        "meta_rev_at_epoch": 32404,
        "meta_bstar": 0.00011606561,
        "meta_mean_motion_dot": 8.72e-06,
        "meta_mean_motion_ddot": 0,
        "tle_line1": "1 44873U 19092A   25348.00504206  .00000872  00000+0  11607-3 0  9990",
        "tle_line2": "2 44873  97.8810 169.3102 0001440  84.8130 275.3248 14.82166612324047"
      },
      "geometry": {
        "type": "Point",
        "coordinates": [
          171.2955023097526,
          -9.925563720055447
        ]
      }
    },
    {
      "type": "Feature",
      "properties": {
        "norad_id": 46277,
        "name": "NEMO-HD",
        "group": "resource",
        "lat": -0.25901315459926816,
        "lon": -132.34805118924808,
        "alt_km": 448.90038772682874,
        "timestamp": "2025-12-14T14:39:29.034182+00:00",
        "meta_object_name": "NEMO-HD",
        "meta_object_id": "2020-061F",
        "meta_epoch": "2025-12-13T23:50:48.634080",
        "meta_mean_motion": 15.40361805,
        "meta_eccentricity": 0.00018146,
        "meta_inclination": 97.2215,
        "meta_ra_of_asc_node": 47.0754,
        "meta_arg_of_pericenter": 55.273,
        "meta_mean_anomaly": 304.8688,
        "meta_ephemeris_type": 0,
        "meta_classification_type": "U",
        "meta_norad_cat_id": 46277,
        "meta_element_set_no": 999,
        "meta_rev_at_epoch": 29343,
        "meta_bstar": 0.00031243853,
        "meta_mean_motion_dot": 0.00012539,
        "meta_mean_motion_ddot": 0,
        "tle_line1": "1 46277U 20061F   25347.99361845  .00012539  00000+0  31244-3 0  9997",
        "tle_line2": "2 46277  97.2215  47.0754 0001814  55.2730 304.8688 15.40361805293438"
      },
      "geometry": {
        "type": "Point",
        "coordinates": [
          -132.34805118924808,
          -0.25901315459926816
        ]
      }
    },
    {
      "type": "Feature",
      "properties": {
        "norad_id": 46984,
        "name": "SENTINEL-6A",
        "group": "resource",
        "lat": 65.74289173026091,
        "lon": -120.90237141218965,
        "alt_km": 1336.4108319404777,
        "timestamp": "2025-12-14T14:39:29.034192+00:00",
        "meta_object_name": "SENTINEL-6A",
        "meta_object_id": "2020-086A",
        "meta_epoch": "2025-12-13T21:20:42.508896",
        "meta_mean_motion": 12.80930683,
        "meta_eccentricity": 0.0007731,
        "meta_inclination": 66.0389,
        "meta_ra_of_asc_node": 159.9202,
        "meta_arg_of_pericenter": 269.234,
        "meta_mean_anomaly": 90.7789,
        "meta_ephemeris_type": 0,
        "meta_classification_type": "U",
        "meta_norad_cat_id": 46984,
        "meta_element_set_no": 999,
        "meta_rev_at_epoch": 23659,
        "meta_bstar": 0.00016831845,
        "meta_mean_motion_dot": -2.2e-07,
        "meta_mean_motion_ddot": 0,
        "tle_line1": "1 46984U 20086A   25347.88938089 -.00000022  00000+0  16832-3 0  9998",
        "tle_line2": "2 46984  66.0389 159.9202 0007731 269.2340  90.7789 12.80930683236592"
      },
      "geometry": {
        "type": "Point",
        "coordinates": [
          -120.90237141218965,
          65.74289173026091
        ]
      }
    },
    {
      "type": "Feature",
      "properties": {
        "norad_id": 48079,
        "name": "GAOFEN-12 02",
        "group": "resource",
        "lat": -59.58480362409274,
        "lon": 148.7739414339517,
        "alt_km": 636.3428858109382,
        "timestamp": "2025-12-14T14:39:29.034203+00:00",
        "meta_object_name": "GAOFEN-12 02",
        "meta_object_id": "2021-026A",
        "meta_epoch": "2025-12-14T00:36:01.879200",
        "meta_mean_motion": 14.80677059,
        "meta_eccentricity": 0.00035676,
        "meta_inclination": 97.9852,
        "meta_ra_of_asc_node": 342.0252,
        "meta_arg_of_pericenter": 98.5489,
        "meta_mean_anomaly": 261.6127,
        "meta_ephemeris_type": 0,
        "meta_classification_type": "U",
        "meta_norad_cat_id": 48079,
        "meta_element_set_no": 999,
        "meta_rev_at_epoch": 25436,
        "meta_bstar": 0.0001023129,
        "meta_mean_motion_dot": 7.34e-06,
        "meta_mean_motion_ddot": 0,
        "tle_line1": "1 48079U 21026A   25348.02502175  .00000734  00000+0  10231-3 0  9996",
        "tle_line2": "2 48079  97.9852 342.0252 0003567  98.5489 261.6127 14.80677059254364"
      },
      "geometry": {
        "type": "Point",
        "coordinates": [
          148.7739414339517,
          -59.58480362409274
        ]
      }
    },
    {
      "type": "Feature",
      "properties": {
        "norad_id": 48268,
        "name": "PLEIADES NEO 3",
        "group": "resource",
        "lat": -45.391053608061505,
        "lon": 69.11019194947039,
        "alt_km": 631.4631312705023,
        "timestamp": "2025-12-14T14:39:29.034212+00:00",
        "meta_object_name": "PLEIADES NEO 3",
        "meta_object_id": "2021-034A",
        "meta_epoch": "2025-12-13T22:39:26.415936",
        "meta_mean_motion": 14.81674885,
        "meta_eccentricity": 0.0001314,
        "meta_inclination": 97.8942,
        "meta_ra_of_asc_node": 60.3672,
        "meta_arg_of_pericenter": 92.6834,
        "meta_mean_anomaly": 267.4529,
        "meta_ephemeris_type": 0,
        "meta_classification_type": "U",
        "meta_norad_cat_id": 48268,
        "meta_element_set_no": 999,
        "meta_rev_at_epoch": 25022,
        "meta_bstar": 0.00018515011,
        "meta_mean_motion_dot": 1.405e-05,
        "meta_mean_motion_ddot": 0,
        "tle_line1": "1 48268U 21034A   25347.94405574  .00001405  00000+0  18515-3 0  9999",
        "tle_line2": "2 48268  97.8942  60.3672 0001314  92.6834 267.4529 14.81674885250222"
      },
      "geometry": {
        "type": "Point",
        "coordinates": [
          69.11019194947039,
          -45.391053608061505
        ]
      }
    },
    {
      "type": "Feature",
      "properties": {
        "norad_id": 49070,
        "name": "PLEIADES NEO 4",
        "group": "resource",
        "lat": 45.124760247691164,
        "lon": -110.96905603346191,
        "alt_km": 619.6174752556517,
        "timestamp": "2025-12-14T14:39:29.034223+00:00",
        "meta_object_name": "PLEIADES NEO 4",
        "meta_object_id": "2021-073E",
        "meta_epoch": "2025-12-12T08:34:07.569120",
        "meta_mean_motion": 14.81676895,
        "meta_eccentricity": 0.00012379,
        "meta_inclination": 97.8941,
        "meta_ra_of_asc_node": 58.7994,
        "meta_arg_of_pericenter": 92.1719,
        "meta_mean_anomaly": 267.9635,
        "meta_ephemeris_type": 0,
        "meta_classification_type": "U",
        "meta_norad_cat_id": 49070,
        "meta_element_set_no": 999,
        "meta_rev_at_epoch": 23370,
        "meta_bstar": 3.8133e-06,
        "meta_mean_motion_dot": -2.2e-07,
        "meta_mean_motion_ddot": 0,
        "tle_line1": "1 49070U 21073E   25346.35703205 -.00000022  00000+0  38133-5 0  9995",
        "tle_line2": "2 49070  97.8941  58.7994 0001237  92.1719 267.9635 14.81676895233702"
      },
      "geometry": {
        "type": "Point",
        "coordinates": [
          -110.96905603346191,
          45.124760247691164
        ]
      }
    },
    {
      "type": "Feature",
      "properties": {
        "norad_id": 49260,
        "name": "LANDSAT 9",
        "group": "resource",
        "lat": -14.351117385512943,
        "lon": 58.81140153670802,
        "alt_km": 707.3603043411795,
        "timestamp": "2025-12-14T14:39:29.034233+00:00",
        "meta_object_name": "LANDSAT 9",
        "meta_object_id": "2021-088A",
        "meta_epoch": "2025-12-13T18:56:50.923392",
        "meta_mean_motion": 14.57099361,
        "meta_eccentricity": 0.0001175,
        "meta_inclination": 98.2094,
        "meta_ra_of_asc_node": 55.8854,
        "meta_arg_of_pericenter": 89.5208,
        "meta_mean_anomaly": 270.6125,
        "meta_ephemeris_type": 0,
        "meta_classification_type": "U",
        "meta_norad_cat_id": 49260,
        "meta_element_set_no": 999,
        "meta_rev_at_epoch": 22400,
        "meta_bstar": 0.00015323543,
        "meta_mean_motion_dot": 6.45e-06,
        "meta_mean_motion_ddot": 0,
        "tle_line1": "1 49260U 21088A   25347.78947828  .00000645  00000+0  15324-3 0  9996",
        "tle_line2": "2 49260  98.2094  55.8854 0001175  89.5208 270.6125 14.57099361224002"
      },
      "geometry": {
        "type": "Point",
        "coordinates": [
          58.81140153670802,
          -14.351117385512943
        ]
      }
    }
  ]
}